{
    "CCSDS_OMM_VERS": "3.0",
    "COMMENT": "GENERATED VIA SPACE-TRACK.ORG API",
    "CREATION_DATE": "2025-11-23T23:06:32",
    "ORIGINATOR": "18 SPCS",
    "OBJECT_NAME": "NAVSTAR 81 (USA 319)",
    "OBJECT_ID": "2021-054A",
    "CENTER_NAME": "EARTH",
    "REF_FRAME": "TEME",
    "TIME_SYSTEM": "UTC",
    "MEAN_ELEMENT_THEORY": "SGP4",
    "EPOCH": "2025-11-15T02:39:18.385344",
    "MEAN_MOTION": "2.00555149",
    "ECCENTRICITY": "0.00245180",
    "INCLINATION": "55.2650",
    "RA_OF_ASC_NODE": "341.0634",
    "ARG_OF_PERICENTER": "231.9656",
    "MEAN_ANOMALY": "120.1891",
    "EPHEMERIS_TYPE": "0",
    "CLASSIFICATION_TYPE": "U",
    "NORAD_CAT_ID": "48859",
    "ELEMENT_SET_NO": "999",
    "REV_AT_EPOCH": "3245",
    "BSTAR": "0.00000000000000",
    "MEAN_MOTION_DOT": "-0.00000086",
    "MEAN_MOTION_DDOT": "0.0000000000000",
    "SEMIMAJOR_AXIS": "26561.094",
    "PERIOD": "718.007",
    "APOAPSIS": "20248.082",
    "PERIAPSIS": "20117.837",
    "OBJECT_TYPE": "PAYLOAD",
    "RCS_SIZE": "LARGE",
    "COUNTRY_CODE": "US",
    "LAUNCH_DATE": "2021-06-17",
    "SITE": "AFETR",
    "DECAY_DATE": null,
    "FILE": "4896466",
    "GP_ID": "303355193",
    "TLE_LINE0": "0 NAVSTAR 81 (USA 319)",
    "TLE_LINE1": "1 48859U 21054A   25319.11062946 -.00000086  00000-0  00000+0 0  9999",
    "TLE_LINE2": "2 48859  55.2650 341.0634 0024518 231.9656 120.1891  2.00555149 32459"
}